API VERSION: 1.2
API SOURCE: NASA/JPL Horizons API



*******************************************************************************
Ephemeris / API_USER Fri Apr  3 11:25:41 2026 Pasadena, USA      / Horizons
*******************************************************************************
Target body name: Neptune (899)                   {source: nep097_merged}
Center body name: Sun (10)                        {source: nep097_merged}
Center-site name: BODY CENTER
*******************************************************************************
Start time      : A.D. 2149-Feb-28 08:03:00.0003 TDB
Stop  time      : A.D. 2149-Mar-02 08:03:00.0003 TDB
Step-size       : 60 minutes
*******************************************************************************
Center geodetic : 0.0, 0.0, 0.0                   {E-lon(deg),Lat(deg),Alt(km)}
Center cylindric: 0.0, 0.0, 0.0                   {E-lon(deg),Dxy(km),Dz(km)}
Center radii    : 695700.0, 695700.0, 695700.0 km {Equator_a, b, pole_c}
Output units    : AU-D
Calendar mode   : Mixed Julian/Gregorian
Output type     : GEOMETRIC cartesian states
Output format   : 3 (position, velocity, LT, range, range-rate)
Reference frame : Ecliptic of J2000.0
*******************************************************************************
            JDTDB,            Calendar Date (TDB),                      X,                      Y,                      Z,                     VX,                     VY,                     VZ,                     LT,                     RG,                     RR,
**************************************************************************************************************************************************************************************************************************************************************************
$$SOE
2506024.835416670, A.D. 2149-Feb-28 08:03:00.0003, -3.125197645793633E-03, -3.025219368245688E+01,  6.229950878743392E-01,  3.123311143699536E-03,  1.473631233929533E-05, -7.194886049609086E-05,  1.747591449157350E-01,  3.025860795289929E+01, -1.653712976925586E-05,
2506024.877083337, A.D. 2149-Feb-28 09:03:00.0003, -2.995059479579333E-03, -3.025219306771147E+01,  6.229920899240373E-01,  3.123320939060297E-03,  1.477139712270547E-05, -7.195287683791622E-05,  1.747591409335094E-01,  3.025860726339828E+01, -1.655885078840385E-05,
2506024.918750003, A.D. 2149-Feb-28 10:03:00.0003, -2.864920892302020E-03, -3.025219245151326E+01,  6.229890917910812E-01,  3.123331351415061E-03,  1.480603946608728E-05, -7.195762663331271E-05,  1.747591369461071E-01,  3.025860657300098E+01, -1.658014449106856E-05,
2506024.960416670, A.D. 2149-Feb-28 11:03:00.0003, -2.734781858675608E-03, -3.025219183388156E+01,  6.229860934450913E-01,  3.123342360308521E-03,  1.484019797799895E-05, -7.196310082306339E-05,  1.747591329536362E-01,  3.025860588172608E+01, -1.660096929534783E-05,
2506025.002083337, A.D. 2149-Feb-28 12:03:00.0003, -2.604642354290904E-03, -3.025219121483738E+01,  6.229830948560974E-01,  3.123353944113204E-03,  1.487383230945275E-05, -7.196928889717309E-05,  1.747591289562144E-01,  3.025860518959395E+01, -1.662128463204857E-05,
2506025.043750003, A.D. 2149-Feb-28 13:03:00.0003, -2.474502355663519E-03, -3.025219059440336E+01,  6.229800959945996E-01,  3.123366080073184E-03,  1.490690322909069E-05, -7.197617891890919E-05,  1.747591249539691E-01,  3.025860449662665E+01, -1.664105102037609E-05,
2506025.085416670, A.D. 2149-Feb-28 14:03:00.0003, -2.344361840279929E-03, -3.025218997260380E+01,  6.229770968316223E-01,  3.123378744349903E-03,  1.493937269572845E-05, -7.198375755159186E-05,  1.747591209470370E-01,  3.025860380284786E+01, -1.666023014104764E-05,
2506025.127083337, A.D. 2149-Feb-28 15:03:00.0003, -2.214220786641633E-03, -3.025218934946450E+01,  6.229740973387748E-01,  3.123391912069983E-03,  1.497120392818451E-05, -7.199201008805661E-05,  1.747591169355638E-01,  3.025860310828281E+01, -1.667878490674548E-05,
2506025.168750003, A.D. 2149-Feb-28 16:03:00.0003, -2.084079174307208E-03, -3.025218872501282E+01,  6.229710974883120E-01,  3.123405557374956E-03,  1.500236147231552E-05, -7.200092048270966E-05,  1.747591129197042E-01,  3.025860241295828E+01, -1.669667952982895E-05,
2506025.210416670, A.D. 2149-Feb-28 17:03:00.0003, -1.953936983932298E-03, -3.025218809927755E+01,  6.229680972531737E-01,  3.123419653472815E-03,  1.503281126518375E-05, -7.201047138609317E-05,  1.747591088996213E-01,  3.025860171690250E+01, -1.671387958722927E-05,
2506025.252083337, A.D. 2149-Feb-28 18:03:00.0003, -1.823794197307419E-03, -3.025218747228884E+01,  6.229650966070556E-01,  3.123434172691252E-03,  1.506252069628528E-05, -7.202064418187506E-05,  1.747591048754861E-01,  3.025860102014509E+01, -1.673035208245446E-05,
2506025.293750003, A.D. 2149-Feb-28 19:03:00.0003, -1.693650797393470E-03, -3.025218684407820E+01,  6.229620955244611E-01,  3.123449086532529E-03,  1.509145866577330E-05, -7.203141902617537E-05,  1.747591008474776E-01,  3.025860032271704E+01, -1.674606550463627E-05,
2506025.335416670, A.D. 2149-Feb-28 20:03:00.0003, -1.563506768354984E-03, -3.025218621467841E+01,  6.229590939807353E-01,  3.123464365729844E-03,  1.511959563961362E-05, -7.204277488913883E-05,  1.747590968157821E-01,  3.025859962465059E+01, -1.676098988455476E-05,
2506025.377083337, A.D. 2149-Feb-28 21:03:00.0003, -1.433362095590983E-03, -3.025218558412341E+01,  6.229560919521251E-01,  3.123479980305083E-03,  1.514690370161460E-05, -7.205468959866077E-05,  1.747590927805928E-01,  3.025859892597923E+01, -1.677509684758068E-05,
2506025.418750003, A.D. 2149-Feb-28 22:03:00.0003, -1.303216765763354E-03, -3.025218495244831E+01,  6.229530894158292E-01,  3.123495899627879E-03,  1.517335660227701E-05, -7.206713988617140E-05,  1.747590887421099E-01,  3.025859822673758E+01, -1.678835966347899E-05,
2506025.460416670, A.D. 2149-Feb-28 23:03:00.0003, -1.173070766822788E-03, -3.025218431968925E+01,  6.229500863500340E-01,  3.123512092475834E-03,  1.519892980441430E-05, -7.208010143438151E-05,  1.747590847005394E-01,  3.025859752696133E+01, -1.680075329302217E-05,
2506025.502083337, A.D. 2149-Mar-01 00:03:00.0003, -1.042924088032203E-03, -3.025218368588336E+01,  6.229470827339590E-01,  3.123528527095812E-03,  1.522360052549690E-05, -7.209354892689030E-05,  1.747590806560932E-01,  3.025859682668720E+01, -1.681225443136474E-05,
2506025.543750003, A.D. 2149-Mar-01 01:03:00.0003, -9.127767199875325E-04, -3.025218305106870E+01,  6.229440785479041E-01,  3.123545171266189E-03,  1.524734777667910E-05, -7.210745609955474E-05,  1.747590766089890E-01,  3.025859612595283E+01, -1.682284154813557E-05,
2506025.585416670, A.D. 2149-Mar-01 02:03:00.0003, -7.826286546359233E-04, -3.025218241528414E+01,  6.229410737732769E-01,  3.123561992359929E-03,  1.527015239847054E-05, -7.212179579351765E-05,  1.747590725594490E-01,  3.025859542479671E+01, -1.683249492420764E-05,
2506025.627083337, A.D. 2149-Mar-01 03:03:00.0003, -6.524798852913622E-04, -3.025218177856933E+01,  6.229380683926371E-01,  3.123578957408396E-03,  1.529199709301880E-05, -7.213654000979072E-05,  1.747590685077001E-01,  3.025859472325814E+01, -1.684119668510974E-05,
2506025.668750003, A.D. 2149-Mar-01 04:03:00.0003, -5.223304066475038E-04, -3.025218114096460E+01,  6.229350623897255E-01,  3.123596033165765E-03,  1.531286645297343E-05, -7.215165996528610E-05,  1.747590644539732E-01,  3.025859402137710E+01, -1.684893083104836E-05,
2506025.710416670, A.D. 2149-Mar-01 05:03:00.0003, -3.921802147878865E-04, -3.025218050251086E+01,  6.229320557494989E-01,  3.123613186173919E-03,  1.533274698690592E-05, -7.216712615019045E-05,  1.747590603985031E-01,  3.025859331919420E+01, -1.685568326351165E-05,
2506025.752083337, A.D. 2149-Mar-01 06:03:00.0003, -2.620293071934527E-04, -3.025217986324958E+01,  6.229290484581540E-01,  3.123630382827729E-03,  1.535162714126405E-05, -7.218290838657270E-05,  1.747590563415274E-01,  3.025859261675063E+01, -1.686144180843212E-05,
2506025.793750003, A.D. 2149-Mar-01 07:03:00.0003, -1.318776827472536E-04, -3.025217922322263E+01,  6.229260405031689E-01,  3.123647589440576E-03,  1.536949731884337E-05, -7.219897588811639E-05,  1.747590522832864E-01,  3.025859191408799E+01, -1.686619623588833E-05,
2506025.835416670, A.D. 2149-Mar-01 08:03:00.0003, -1.725341736530447E-06, -3.025217858247226E+01,  6.229230318733046E-01,  3.123664772310009E-03,  1.538634989376225E-05, -7.221529732086629E-05,  1.747590482240231E-01,  3.025859121124833E+01, -1.686993827632956E-05,
2506025.877083337, A.D. 2149-Mar-01 09:03:00.0003,  1.284277141480278E-04, -3.025217794104102E+01,  6.229200225586417E-01,  3.123681897783430E-03,  1.540217922293138E-05, -7.223184086487853E-05,  1.747590441639817E-01,  3.025859050827396E+01, -1.687266163331256E-05,
2506025.918750003, A.D. 2149-Mar-01 10:03:00.0003,  2.585814818157063E-04, -3.025217729897159E+01,  6.229170125505963E-01,  3.123698932323656E-03,  1.541698165401207E-05, -7.224857427666197E-05,  1.747590401034080E-01,  3.025858980520740E+01, -1.687436199274183E-05,
2506025.960416670, A.D. 2149-Mar-01 11:03:00.0003,  3.887359567819788E-04, -3.025217665630683E+01,  6.229140018419330E-01,  3.123715842574288E-03,  1.543075552986249E-05, -7.226546495229865E-05,  1.747590360425484E-01,  3.025858910209136E+01, -1.687503702861076E-05,
2506026.002083337, A.D. 2149-Mar-01 12:03:00.0003,  5.188911331773140E-04, -3.025217601308958E+01,  6.229109904267884E-01,  3.123732595424713E-03,  1.544350118947432E-05, -7.228247999113080E-05,  1.747590319816498E-01,  3.025858839896857E+01, -1.687468640524346E-05,
2506026.043750003, A.D. 2149-Mar-01 13:03:00.0003,  6.490470037588529E-04, -3.025217536936265E+01,  6.229079783006667E-01,  3.123749158074666E-03,  1.545522096540661E-05, -7.229958625990028E-05,  1.747590279209588E-01,  3.025858769588173E+01, -1.687331177604190E-05,
